{
  "type": "FeatureCollection",
  "features": [
    {
      "type": "Feature",
      "properties": { "A31_101": "0.5m未満" },
      "geometry": {
        "type": "Polygon",
        "coordinates": [
          [
            [139.698, 35.656],
            [139.702, 35.656],
            [139.702, 35.66],
            [139.698, 35.66],
            [139.698, 35.656]
          ]
        ]
      }
    },
    {
      "type": "Feature",
      "properties": { "depth_category": "3.0m以上5.0m未満" },
      "geometry": {
        "type": "Polygon",
        "coordinates": [
          [
            [139.703, 35.657],
            [139.707, 35.657],
            [139.707, 35.661],
            [139.703, 35.661],
            [139.703, 35.657]
          ]
        ]
      }
    }
  ]
}
