{
  "type": "FeatureCollection",
  "features": [
    {
      "type": "Feature",
      "properties": { "N03_007": "13113", "N03_004": "渋谷区" },
      "geometry": {
        "type": "Polygon",
        "coordinates": [
          [
            [139.69, 35.65],
            [139.71, 35.65],
            [139.71, 35.67],
            [139.69, 35.67],
            [139.69, 35.65]
          ]
        ]
      }
    },
    {
      "type": "Feature",
      "properties": { "N03_004": "新宿区" },
      "geometry": {
        "type": "Polygon",
        "coordinates": [
          [
            [139.69, 35.68],
            [139.71, 35.68],
            [139.71, 35.7],
            [139.69, 35.7],
            [139.69, 35.68]
          ]
        ]
      }
    }
  ]
}
