{
  "type": "FeatureCollection",
  "features": [
    {
      "type": "Feature",
      "properties": {
        "A29_005": "第一種低層住居専用地域"
      },
      "geometry": {
        "type": "Polygon",
        "coordinates": [
          [
            [
              139.695,
              35.655
            ],
            [
              139.705,
              35.655
            ],
            [
              139.705,
              35.665
            ],
            [
              139.695,
              35.665
            ],
            [
              139.695,
              35.655
            ]
          ]
        ]
      }
    },
    {
      "type": "Feature",
      "properties": {
        "A29_005": "商業地域"
      },
      "geometry": {
        "type": "Polygon",
        "coordinates": [
          [
            [
              139.695,
              35.685
            ],
            [
              139.705,
              35.685
            ],
            [
              139.705,
              35.695
            ],
            [
              139.695,
              35.695
            ],
            [
              139.695,
              35.685
            ]
          ]
        ]
      }
    },
    {
      "type": "Feature",
      "properties": {
        "category": "mixed_use_special_district",
        "is_residential": true
      },
      "geometry": {
        "type": "Polygon",
        "coordinates": [
          [
            [
              139.71,
              35.61
            ],
            [
              139.72,
              35.61
            ],
            [
              139.72,
              35.62
            ],
            [
              139.71,
              35.62
            ],
            [
              139.71,
              35.61
            ]
          ]
        ]
      }
    }
  ]
}
